{"type": "FeatureCollection", "features": [ {"type": "Feature", "properties": {"norad_id": 51444, "name": "CSG-2", "group": "resource", "lat": -74.39037968650402, "lon": -43.389115857714756, "alt_km": 630.872555868892, "timestamp": "2025-12-10T23:33:12.484568+00:00", "meta": {"OBJECT_NAME": "CSG-2", "OBJECT_ID": "2022-008A", "EPOCH": "2025-12-10T14:17:55.088736", "MEAN_MOTION": 14.82159097, "ECCENTRICITY": 0.00014893, "INCLINATION": 97.8805, "RA_OF_ASC_NODE": 165.951, "ARG_OF_PERICENTER": 84.0426, "MEAN_ANOMALY": 276.0957, "EPHEMERIS_TYPE": 0, "CLASSIFICATION_TYPE": "U", "NORAD_CAT_ID": 51444, "ELEMENT_SET_NO": 999, "REV_AT_EPOCH": 20865, "BSTAR": 8.5193305e-05, "MEAN_MOTION_DOT": 6.26e-06, "MEAN_MOTION_DDOT": 0}, "tle": {"line1": "1 51444U 22008A   25344.59577649  .00000626  00000+0  85193-4 0  9993", "line2": "2 51444  97.8805 165.9510 0001489  84.0426 276.0957 14.82159097208653"}}, "geometry": {"type": "Point", "coordinates": [-43.389115857714756, -74.39037968650402]}}, {"type": "Feature", "properties": {"norad_id": 52912, "name": "GAOFEN-12 03", "group": "resource", "lat": -9.214493078579006, "lon": 51.08851485144776, "alt_km": 635.6361265613195, "timestamp": "2025-12-10T23:33:12.484577+00:00", "meta": {"OBJECT_NAME": "GAOFEN-12 03", "OBJECT_ID": "2022-069A", "EPOCH": "2025-12-10T16:12:32.791392", "MEAN_MOTION": 14.79601171, "ECCENTRICITY": 0.00022557, "INCLINATION": 97.848, "RA_OF_ASC_NODE": 232.0718, "ARG_OF_PERICENTER": 64.7596, "MEAN_ANOMALY": 295.3849, "EPHEMERIS_TYPE": 0, "CLASSIFICATION_TYPE": "U", "NORAD_CAT_ID": 52912, "ELEMENT_SET_NO": 999, "REV_AT_EPOCH": 18673, "BSTAR": 0.0002262107, "MEAN_MOTION_DOT": 1.644e-05, "MEAN_MOTION_DDOT": 0}, "tle": {"line1": "1 52912U 22069A   25344.67537953  .00001644  00000+0  22621-3 0  9991", "line2": "2 52912  97.8480 232.0718 0002255  64.7596 295.3849 14.79601171186733"}}, "geometry": {"type": "Point", "coordinates": [51.08851485144776, -9.214493078579006]}}, {"type": "Feature", "properties": {"norad_id": 54754, "name": "SWOT", "group": "resource", "lat": -52.161544951492964, "lon": -87.07505013289006, "alt_km": 900.1999164635836, "timestamp": "2025-12-10T23:33:12.484586+00:00", "meta": {"OBJECT_NAME": "SWOT", "OBJECT_ID": "2022-173A", "EPOCH": "2025-12-10T15:14:10.442112", "MEAN_MOTION": 14.00174217, "ECCENTRICITY": 3.294e-05, "INCLINATION": 77.6105, "RA_OF_ASC_NODE": 289.831, "ARG_OF_PERICENTER": 118.2647, "MEAN_ANOMALY": 241.8538, "EPHEMERIS_TYPE": 0, "CLASSIFICATION_TYPE": "U", "NORAD_CAT_ID": 54754, "ELEMENT_SET_NO": 999, "REV_AT_EPOCH": 15276, "BSTAR": 4.6535878e-05, "MEAN_MOTION_DOT": 6.6e-07, "MEAN_MOTION_DDOT": 0}, "tle": {"line1": "1 54754U 22173A   25344.63484308  .00000066  00000+0  46536-4 0  9993", "line2": "2 54754  77.6105 289.8310 0000329 118.2647 241.8538 14.00174217152766"}}, "geometry": {"type": "Point", "coordinates": [-87.07505013289006, -52.161544951492964]}}, {"type": "Feature", "properties": {"norad_id": 57654, "name": "GAOFEN-12 04", "group": "resource", "lat": -1.9451971332501439, "lon": -98.96425370187431, "alt_km": 633.3069453047365, "timestamp": "2025-12-10T23:33:12.484596+00:00", "meta": {"OBJECT_NAME": "GAOFEN-12 04", "OBJECT_ID": "2023-123A", "EPOCH": "2025-12-10T15:26:51.296064", "MEAN_MOTION": 14.79690633, "ECCENTRICITY": 0.0001358, "INCLINATION": 97.9117, "RA_OF_ASC_NODE": 260.4326, "ARG_OF_PERICENTER": 73.4226, "MEAN_ANOMALY": 286.7135, "EPHEMERIS_TYPE": 0, "CLASSIFICATION_TYPE": "U", "NORAD_CAT_ID": 57654, "ELEMENT_SET_NO": 999, "REV_AT_EPOCH": 12474, "BSTAR": 0.00031775292, "MEAN_MOTION_DOT": 2.335e-05, "MEAN_MOTION_DDOT": 0}, "tle": {"line1": "1 57654U 23123A   25344.64364926  .00002335  00000+0  31775-3 0  9994", "line2": "2 57654  97.9117 260.4326 0001358  73.4226 286.7135 14.79690633124745"}}, "geometry": {"type": "Point", "coordinates": [-98.96425370187431, -1.9451971332501439]}}, {"type": "Feature", "properties": {"norad_id": 59065, "name": "PARS 1", "group": "resource", "lat": 7.411719741017929, "lon": -45.10003460616517, "alt_km": 442.52536228652843, "timestamp": "2025-12-10T23:33:12.484605+00:00", "meta": {"OBJECT_NAME": "PARS 1", "OBJECT_ID": "2024-039Q", "EPOCH": "2025-12-10T15:43:42.406752", "MEAN_MOTION": 15.40898981, "ECCENTRICITY": 0.00126341, "INCLINATION": 97.4638, "RA_OF_ASC_NODE": 315.5442, "ARG_OF_PERICENTER": 78.5124, "MEAN_ANOMALY": 281.7541, "EPHEMERIS_TYPE": 0, "CLASSIFICATION_TYPE": "U", "NORAD_CAT_ID": 59065, "ELEMENT_SET_NO": 999, "REV_AT_EPOCH": 9956, "BSTAR": 0.00041783947, "MEAN_MOTION_DOT": 0.00017149, "MEAN_MOTION_DDOT": 0}, "tle": {"line1": "1 59065U 24039Q   25344.65535193  .00017149  00000+0  41784-3 0  9996", "line2": "2 59065  97.4638 315.5442 0012634  78.5124 281.7541 15.40898981 99561"}}, "geometry": {"type": "Point", "coordinates": [-45.10003460616517, 7.411719741017929]}}, {"type": "Feature", "properties": {"norad_id": 59371, "name": "RESURS-P 4", "group": "resource", "lat": -25.79965202908471, "lon": 107.8170466517034, "alt_km": 476.45707868437785, "timestamp": "2025-12-10T23:33:12.484614+00:00", "meta": {"OBJECT_NAME": "RESURS-P 4", "OBJECT_ID": "2024-061A", "EPOCH": "2025-12-10T14:49:11.550720", "MEAN_MOTION": 15.32058639, "ECCENTRICITY": 0.00016874, "INCLINATION": 97.2543, "RA_OF_ASC_NODE": 290.991, "ARG_OF_PERICENTER": 53.1461, "MEAN_ANOMALY": 306.9935, "EPHEMERIS_TYPE": 0, "CLASSIFICATION_TYPE": "U", "NORAD_CAT_ID": 59371, "ELEMENT_SET_NO": 999, "REV_AT_EPOCH": 9488, "BSTAR": 0.00019974916, "MEAN_MOTION_DOT": 6.107e-05, "MEAN_MOTION_DDOT": 0}, "tle": {"line1": "1 59371U 24061A   25344.61749480  .00006107  00000+0  19975-3 0  9992", "line2": "2 59371  97.2543 290.9910 0001687  53.1461 306.9935 15.32058639 94885"}}, "geometry": {"type": "Point", "coordinates": [107.8170466517034, -25.79965202908471]}}, {"type": "Feature", "properties": {"norad_id": 59625, "name": "LEGION 1", "group": "resource", "lat": 10.280278445611552, "lon": -118.99238848602467, "alt_km": 520.8291584081144, "timestamp": "2025-12-10T23:33:12.484622+00:00", "meta": {"OBJECT_NAME": "LEGION 1", "OBJECT_ID": "2024-081A", "EPOCH": "2025-12-10T11:43:21.256608", "MEAN_MOTION": 15.16444018, "ECCENTRICITY": 0.00041339, "INCLINATION": 97.5211, "RA_OF_ASC_NODE": 59.1458, "ARG_OF_PERICENTER": 327.5012, "MEAN_ANOMALY": 32.5966, "EPHEMERIS_TYPE": 0, "CLASSIFICATION_TYPE": "U", "NORAD_CAT_ID": 59625, "ELEMENT_SET_NO": 999, "REV_AT_EPOCH": 8893, "BSTAR": 0.00041797433, "MEAN_MOTION_DOT": 8.067e-05, "MEAN_MOTION_DDOT": 0}, "tle": {"line1": "1 59625U 24081A   25344.48844047  .00008067  00000+0  41797-3 0  9990", "line2": "2 59625  97.5211  59.1458 0004133 327.5012  32.5966 15.16444018 88930"}}, "geometry": {"type": "Point", "coordinates": [-118.99238848602467, 10.280278445611552]}}, {"type": "Feature", "properties": {"norad_id": 59626, "name": "LEGION 2", "group": "resource", "lat": -10.758406594196362, "lon": 61.16015911211911, "alt_km": 518.2298083403666, "timestamp": "2025-12-10T23:33:12.484632+00:00", "meta": {"OBJECT_NAME": "LEGION 2", "OBJECT_ID": "2024-081B", "EPOCH": "2025-12-10T14:05:57.643008", "MEAN_MOTION": 15.1645695, "ECCENTRICITY": 0.00057765, "INCLINATION": 97.5213, "RA_OF_ASC_NODE": 59.3311, "ARG_OF_PERICENTER": 302.878, "MEAN_ANOMALY": 57.1897, "EPHEMERIS_TYPE": 0, "CLASSIFICATION_TYPE": "U", "NORAD_CAT_ID": 59626, "ELEMENT_SET_NO": 999, "REV_AT_EPOCH": 8895, "BSTAR": 0.00038265871, "MEAN_MOTION_DOT": 7.383e-05, "MEAN_MOTION_DDOT": 0}, "tle": {"line1": "1 59626U 24081B   25344.58747272  .00007383  00000+0  38266-3 0  9991", "line2": "2 59626  97.5213  59.3311 0005776 302.8780  57.1897 15.16456950 88951"}}, "geometry": {"type": "Point", "coordinates": [61.16015911211911, -10.758406594196362]}}, {"type": "Feature", "properties": {"norad_id": 60182, "name": "ALOS-4 (DAICHI-4)", "group": "resource", "lat": -59.38039204281784, "lon": -113.75497192764496, "alt_km": 638.8765379115475, "timestamp": "2025-12-10T23:33:12.484641+00:00", "meta": {"OBJECT_NAME": "ALOS-4 (DAICHI-4)", "OBJECT_ID": "2024-123A", "EPOCH": "2025-12-10T12:43:54.253920", "MEAN_MOTION": 14.79476033, "ECCENTRICITY": 0.00014216, "INCLINATION": 97.9225, "RA_OF_ASC_NODE": 79.409, "ARG_OF_PERICENTER": 101.2731, "MEAN_ANOMALY": 258.864, "EPHEMERIS_TYPE": 0, "CLASSIFICATION_TYPE": "U", "NORAD_CAT_ID": 60182, "ELEMENT_SET_NO": 999, "REV_AT_EPOCH": 7798, "BSTAR": 0.00038722943, "MEAN_MOTION_DOT": 2.842e-05, "MEAN_MOTION_DDOT": 0}, "tle": {"line1": "1 60182U 24123A   25344.53048905  .00002842  00000+0  38723-3 0  9992", "line2": "2 60182  97.9225  79.4090 0001421 101.2731 258.8640 14.79476033 77983"}}, "geometry": {"type": "Point", "coordinates": [-113.75497192764496, -59.38039204281784]}}, {"type": "Feature", "properties": {"norad_id": 60452, "name": "LEGION 3", "group": "resource", "lat": 18.04720433698621, "lon": -21.413954812720068, "alt_km": 525.8029932377631, "timestamp": "2025-12-10T23:33:12.484650+00:00", "meta": {"OBJECT_NAME": "LEGION 3", "OBJECT_ID": "2024-146A", "EPOCH": "2025-12-10T10:47:06.031104", "MEAN_MOTION": 15.15723032, "ECCENTRICITY": 0.00146431, "INCLINATION": 45.0022, "RA_OF_ASC_NODE": 322.4112, "ARG_OF_PERICENTER": 186.3263, "MEAN_ANOMALY": 173.7433, "EPHEMERIS_TYPE": 0, "CLASSIFICATION_TYPE": "U", "NORAD_CAT_ID": 60452, "ELEMENT_SET_NO": 999, "REV_AT_EPOCH": 7338, "BSTAR": 0.00041865076, "MEAN_MOTION_DOT": 7.877e-05, "MEAN_MOTION_DDOT": 0}, "tle": {"line1": "1 60452U 24146A   25344.44937536  .00007877  00000+0  41865-3 0  9998", "line2": "2 60452  45.0022 322.4112 0014643 186.3263 173.7433 15.15723032 73382"}}, "geometry": {"type": "Point", "coordinates": [-21.413954812720068, 18.04720433698621]}}]}